0 FENGYUN 1C DEB
1 30723U 99025ASH 13281.41153882  .00002398  00000-0  13191-2 0  4586
2 30723 098.8912 251.2778 0022467 076.5237 074.7661 14.12467757341662
0 FENGYUN 1C DEB
1 30723U 99025ASH 13282.59720287  .00002850  00000-0  15630-2 0  4599
2 30723 098.8912 252.4545 0022519 073.4209 343.4955 14.12476656341839
0 FENGYUN 1C DEB
1 30723U 99025ASH 13284.16985797  .00003170  00000-0  17353-2 0  4605
2 30723 098.8910 254.0154 0022646 069.3364 059.9707 14.12485039342052
0 FENGYUN 1C DEB
1 30723U 99025ASH 13285.23163730  .00002581  00000-0  14174-2 0  4613
2 30723 098.8911 255.0688 0022696 066.6564 058.7468 14.12491464342200
0 FENGYUN 1C DEB
1 30723U 99025ASH 13286.63469605  .00002570  00000-0  14111-2 0  4628
2 30723 098.8909 256.4614 0022787 062.9732 352.9892 14.12498723342405
0 FENGYUN 1C DEB
1 30723U 99025ASH 13287.84029438  .00003215  00000-0  17591-2 0  4631
2 30723 098.8908 257.6581 0022803 059.7859 003.2408 14.12506293342572
0 FENGYUN 1C DEB
1 30723U 99025ASH 13289.19890478  .00003539  00000-0  19338-2 0  4642
2 30723 098.8911 259.0062 0022830 056.3650 071.4042 14.12514473342769
0 FENGYUN 1C DEB
1 30723U 99025ASH 13290.40777653  .00003508  00000-0  19167-2 0  4654
2 30723 098.8915 260.2056 0022863 053.2336 098.3027 14.12520930342938
0 FENGYUN 1C DEB
1 30723U 99025ASH 13290.59054537  .00002062  00000-0  11141-2 0  4651
2 30723 098.8926 260.3831 0022573 055.4724 304.9043 14.12513641342963
0 FENGYUN 1C DEB
1 30723U 99025ASH 13291.59223468  .00003455  00000-0  18876-2 0  4663
2 30723 098.8920 261.3809 0022868 050.1285 001.1324 14.12527554343107
0 FENGYUN 1C DEB
1 30723U 99025ASH 13293.16629167  .00003599  00000-0  19651-2 0  4676
2 30723 098.8928 262.9426 0022880 046.0611 085.0135 14.12537103343324
0 FENGYUN 1C DEB
1 30723U 99025ASH 13294.63884852  .00003653  00000-0  19940-2 0  4686
2 30723 098.8929 264.4041 0022940 042.3055 012.7802 14.12547913343534
